CCSDS_OMM_VERS = 2.0
CREATION_DATE  = 
ORIGINATOR     = 

OBJECT_NAME    = STARLINK-36772
OBJECT_ID      = 2026-026A
CENTER_NAME    = EARTH
REF_FRAME      = TEME
TIME_SYSTEM    = UTC
MEAN_ELEMENT_THEORY = SGP/SGP4

EPOCH          = 2026-03-12T04:00:01.999584
MEAN_MOTION    = 15.37016001
ECCENTRICITY   = .0001212
INCLINATION    = 97.2841
RA_OF_ASC_NODE = 125.6812
ARG_OF_PERICENTER = 68.5886
MEAN_ANOMALY   = 217.8852

EPHEMERIS_TYPE = 0
CLASSIFICATION_TYPE = U
NORAD_CAT_ID   = 67721
ELEMENT_SET_NO = 999
REV_AT_EPOCH   = 571
BSTAR          = -.71267E-1
MEAN_MOTION_DOT = -.2301099E-1
MEAN_MOTION_DDOT = 0

CCSDS_OMM_VERS = 2.0
CREATION_DATE  = 
ORIGINATOR     = 

OBJECT_NAME    = STARLINK-36796
OBJECT_ID      = 2026-026B
CENTER_NAME    = EARTH
REF_FRAME      = TEME
TIME_SYSTEM    = UTC
MEAN_ELEMENT_THEORY = SGP/SGP4

EPOCH          = 2026-03-12T04:00:01.999584
MEAN_MOTION    = 15.35894885
ECCENTRICITY   = .0002357
INCLINATION    = 97.2847
RA_OF_ASC_NODE = 125.6680
ARG_OF_PERICENTER = 66.3308
MEAN_ANOMALY   = 193.6823

EPHEMERIS_TYPE = 0
CLASSIFICATION_TYPE = U
NORAD_CAT_ID   = 67722
ELEMENT_SET_NO = 999
REV_AT_EPOCH   = 571
BSTAR          = -.71723E-1
MEAN_MOTION_DOT = -.224105E-1
MEAN_MOTION_DDOT = 0

CCSDS_OMM_VERS = 2.0
CREATION_DATE  = 
ORIGINATOR     = 

OBJECT_NAME    = STARLINK-36369
OBJECT_ID      = 2026-026C
CENTER_NAME    = EARTH
REF_FRAME      = TEME
TIME_SYSTEM    = UTC
MEAN_ELEMENT_THEORY = SGP/SGP4

EPOCH          = 2026-03-12T04:00:01.999584
MEAN_MOTION    = 15.39038235
ECCENTRICITY   = .000173
INCLINATION    = 97.2848
RA_OF_ASC_NODE = 125.6919
ARG_OF_PERICENTER = 80.7148
MEAN_ANOMALY   = 229.4649

EPHEMERIS_TYPE = 0
CLASSIFICATION_TYPE = U
NORAD_CAT_ID   = 67723
ELEMENT_SET_NO = 999
REV_AT_EPOCH   = 571
BSTAR          = -.52486E-1
MEAN_MOTION_DOT = -.1824948E-1
MEAN_MOTION_DDOT = 0

CCSDS_OMM_VERS = 2.0
CREATION_DATE  = 
ORIGINATOR     = 

OBJECT_NAME    = STARLINK-36752
OBJECT_ID      = 2026-026D
CENTER_NAME    = EARTH
REF_FRAME      = TEME
TIME_SYSTEM    = UTC
MEAN_ELEMENT_THEORY = SGP/SGP4

EPOCH          = 2026-03-12T04:00:01.999584
MEAN_MOTION    = 15.36995203
ECCENTRICITY   = .0001642
INCLINATION    = 97.2841
RA_OF_ASC_NODE = 125.7022
ARG_OF_PERICENTER = 81.3292
MEAN_ANOMALY   = 251.8854

EPHEMERIS_TYPE = 0
CLASSIFICATION_TYPE = U
NORAD_CAT_ID   = 67724
ELEMENT_SET_NO = 999
REV_AT_EPOCH   = 571
BSTAR          = -.56519E-1
MEAN_MOTION_DOT = -.1837011E-1
MEAN_MOTION_DDOT = 0

CCSDS_OMM_VERS = 2.0
CREATION_DATE  = 
ORIGINATOR     = 

OBJECT_NAME    = STARLINK-36754
OBJECT_ID      = 2026-026E
CENTER_NAME    = EARTH
REF_FRAME      = TEME
TIME_SYSTEM    = UTC
MEAN_ELEMENT_THEORY = SGP/SGP4

EPOCH          = 2026-03-12T04:00:01.999584
MEAN_MOTION    = 15.38013596
ECCENTRICITY   = .0001926
INCLINATION    = 97.2853
RA_OF_ASC_NODE = 125.6788
ARG_OF_PERICENTER = 87.3676
MEAN_ANOMALY   = 192.0732

EPHEMERIS_TYPE = 0
CLASSIFICATION_TYPE = U
NORAD_CAT_ID   = 67725
ELEMENT_SET_NO = 999
REV_AT_EPOCH   = 571
BSTAR          = -.56224E-1
MEAN_MOTION_DOT = -.1883849E-1
MEAN_MOTION_DDOT = 0

CCSDS_OMM_VERS = 2.0
CREATION_DATE  = 
ORIGINATOR     = 

OBJECT_NAME    = STARLINK-36755
OBJECT_ID      = 2026-026F
CENTER_NAME    = EARTH
REF_FRAME      = TEME
TIME_SYSTEM    = UTC
MEAN_ELEMENT_THEORY = SGP/SGP4

EPOCH          = 2026-03-12T01:16:12.274176
MEAN_MOTION    = 15.49074201
ECCENTRICITY   = .0002666
INCLINATION    = 97.2864
RA_OF_ASC_NODE = 125.5576
ARG_OF_PERICENTER = 35.6563
MEAN_ANOMALY   = 324.4866

EPHEMERIS_TYPE = 0
CLASSIFICATION_TYPE = U
NORAD_CAT_ID   = 67726
ELEMENT_SET_NO = 999
REV_AT_EPOCH   = 448
BSTAR          = .13195E-3
MEAN_MOTION_DOT = .7064E-4
MEAN_MOTION_DDOT = 0

CCSDS_OMM_VERS = 2.0
CREATION_DATE  = 
ORIGINATOR     = 

OBJECT_NAME    = STARLINK-36741
OBJECT_ID      = 2026-026G
CENTER_NAME    = EARTH
REF_FRAME      = TEME
TIME_SYSTEM    = UTC
MEAN_ELEMENT_THEORY = SGP/SGP4

EPOCH          = 2026-03-12T04:00:01.999584
MEAN_MOTION    = 15.40002215
ECCENTRICITY   = .000184
INCLINATION    = 97.2848
RA_OF_ASC_NODE = 125.6767
ARG_OF_PERICENTER = 80.4401
MEAN_ANOMALY   = 193.1745

EPHEMERIS_TYPE = 0
CLASSIFICATION_TYPE = U
NORAD_CAT_ID   = 67727
ELEMENT_SET_NO = 999
REV_AT_EPOCH   = 571
BSTAR          = -.52319E-1
MEAN_MOTION_DOT = -.1872613E-1
MEAN_MOTION_DDOT = 0

CCSDS_OMM_VERS = 2.0
CREATION_DATE  = 
ORIGINATOR     = 

OBJECT_NAME    = STARLINK-36757
OBJECT_ID      = 2026-026H
CENTER_NAME    = EARTH
REF_FRAME      = TEME
TIME_SYSTEM    = UTC
MEAN_ELEMENT_THEORY = SGP/SGP4

EPOCH          = 2026-03-12T04:00:01.999584
MEAN_MOTION    = 15.38194740
ECCENTRICITY   = .0001488
INCLINATION    = 97.2842
RA_OF_ASC_NODE = 125.7249
ARG_OF_PERICENTER = 76.6240
MEAN_ANOMALY   = 309.1496

EPHEMERIS_TYPE = 0
CLASSIFICATION_TYPE = U
NORAD_CAT_ID   = 67728
ELEMENT_SET_NO = 999
REV_AT_EPOCH   = 571
BSTAR          = -.53942E-1
MEAN_MOTION_DOT = -.1824373E-1
MEAN_MOTION_DDOT = 0

CCSDS_OMM_VERS = 2.0
CREATION_DATE  = 
ORIGINATOR     = 

OBJECT_NAME    = STARLINK-36751
OBJECT_ID      = 2026-026J
CENTER_NAME    = EARTH
REF_FRAME      = TEME
TIME_SYSTEM    = UTC
MEAN_ELEMENT_THEORY = SGP/SGP4

EPOCH          = 2026-03-12T04:00:01.999584
MEAN_MOTION    = 15.38215923
ECCENTRICITY   = .0001559
INCLINATION    = 97.2846
RA_OF_ASC_NODE = 125.7381
ARG_OF_PERICENTER = 77.5359
MEAN_ANOMALY   = 337.9179

EPHEMERIS_TYPE = 0
CLASSIFICATION_TYPE = U
NORAD_CAT_ID   = 67729
ELEMENT_SET_NO = 999
REV_AT_EPOCH   = 571
BSTAR          = -.53472E-1
MEAN_MOTION_DOT = -.1811168E-1
MEAN_MOTION_DDOT = 0

CCSDS_OMM_VERS = 2.0
CREATION_DATE  = 
ORIGINATOR     = 

OBJECT_NAME    = STARLINK-36747
OBJECT_ID      = 2026-026K
CENTER_NAME    = EARTH
REF_FRAME      = TEME
TIME_SYSTEM    = UTC
MEAN_ELEMENT_THEORY = SGP/SGP4

EPOCH          = 2026-03-12T04:00:01.999584
MEAN_MOTION    = 15.38109029
ECCENTRICITY   = .0001446
INCLINATION    = 97.2843
RA_OF_ASC_NODE = 125.7326
ARG_OF_PERICENTER = 74.5287
MEAN_ANOMALY   = 328.5651

EPHEMERIS_TYPE = 0
CLASSIFICATION_TYPE = U
NORAD_CAT_ID   = 67730
ELEMENT_SET_NO = 999
REV_AT_EPOCH   = 571
BSTAR          = -.54553E-1
MEAN_MOTION_DOT = -.1838307E-1
MEAN_MOTION_DDOT = 0

CCSDS_OMM_VERS = 2.0
CREATION_DATE  = 
ORIGINATOR     = 

OBJECT_NAME    = STARLINK-36315
OBJECT_ID      = 2026-026L
CENTER_NAME    = EARTH
REF_FRAME      = TEME
TIME_SYSTEM    = UTC
MEAN_ELEMENT_THEORY = SGP/SGP4

EPOCH          = 2026-03-12T04:00:01.999584
MEAN_MOTION    = 15.38567150
ECCENTRICITY   = .0001418
INCLINATION    = 97.2843
RA_OF_ASC_NODE = 125.7440
ARG_OF_PERICENTER = 77.7869
MEAN_ANOMALY   = 351.1703

EPHEMERIS_TYPE = 0
CLASSIFICATION_TYPE = U
NORAD_CAT_ID   = 67731
ELEMENT_SET_NO = 999
REV_AT_EPOCH   = 571
BSTAR          = -.52716E-1
MEAN_MOTION_DOT = -.1806617E-1
MEAN_MOTION_DDOT = 0

CCSDS_OMM_VERS = 2.0
CREATION_DATE  = 
ORIGINATOR     = 

OBJECT_NAME    = STARLINK-36260
OBJECT_ID      = 2026-026M
CENTER_NAME    = EARTH
REF_FRAME      = TEME
TIME_SYSTEM    = UTC
MEAN_ELEMENT_THEORY = SGP/SGP4

EPOCH          = 2026-03-12T04:00:01.999584
MEAN_MOTION    = 15.38671101
ECCENTRICITY   = .0001595
INCLINATION    = 97.2850
RA_OF_ASC_NODE = 125.7514
ARG_OF_PERICENTER = 69.6147
MEAN_ANOMALY   = 17.2454

EPHEMERIS_TYPE = 0
CLASSIFICATION_TYPE = U
NORAD_CAT_ID   = 67732
ELEMENT_SET_NO = 999
REV_AT_EPOCH   = 571
BSTAR          = -.52647E-1
MEAN_MOTION_DOT = -.1810129E-1
MEAN_MOTION_DDOT = 0

