STARLINK-36772          
1 67721U 26026A   26071.16668981 -.02301099  00000+0 -71267-1 0  9999
2 67721  97.2841 125.6812 0001212  68.5886 217.8852 15.37016001  5718
STARLINK-36796          
1 67722U 26026B   26071.16668981 -.02241050  00000+0 -71723-1 0  9997
2 67722  97.2847 125.6680 0002357  66.3308 193.6823 15.35894885  5715
STARLINK-36369          
1 67723U 26026C   26071.16668981 -.01824948  00000+0 -52486-1 0  9995
2 67723  97.2848 125.6919 0001730  80.7148 229.4649 15.39038235  5715
STARLINK-36752          
1 67724U 26026D   26071.16668981 -.01837011  00000+0 -56519-1 0  9992
2 67724  97.2841 125.7022 0001642  81.3292 251.8854 15.36995203  5715
STARLINK-36754          
1 67725U 26026E   26071.16668981 -.01883849  00000+0 -56224-1 0  9996
2 67725  97.2853 125.6788 0001926  87.3676 192.0732 15.38013596  5713
STARLINK-36755          
1 67726U 26026F   26071.05291984  .00007064  00000+0  13195-3 0  9996
2 67726  97.2864 125.5576 0002666  35.6563 324.4866 15.49074201  4487
STARLINK-36741          
1 67727U 26026G   26071.16668981 -.01872613  00000+0 -52319-1 0  9996
2 67727  97.2848 125.6767 0001840  80.4401 193.1745 15.40002215  5716
STARLINK-36757          
1 67728U 26026H   26071.16668981 -.01824373  00000+0 -53942-1 0  9990
2 67728  97.2842 125.7249 0001488  76.6240 309.1496 15.38194740  5717
STARLINK-36751          
1 67729U 26026J   26071.16668981 -.01811168  00000+0 -53472-1 0  9997
2 67729  97.2846 125.7381 0001559  77.5359 337.9179 15.38215923  5713
STARLINK-36747          
1 67730U 26026K   26071.16668981 -.01838307  00000+0 -54553-1 0  9994
2 67730  97.2843 125.7326 0001446  74.5287 328.5651 15.38109029  5713
STARLINK-36315          
1 67731U 26026L   26071.16668981 -.01806617  00000+0 -52716-1 0  9993
2 67731  97.2843 125.7440 0001418  77.7869 351.1703 15.38567150  5714
STARLINK-36260          
1 67732U 26026M   26071.16668981 -.01810129  00000+0 -52647-1 0  9990
2 67732  97.2850 125.7514 0001595  69.6147  17.2454 15.38671101  5715
